{"type": "FeatureCollection", "features": [ {"type": "Feature", "properties": {"norad_id": 34870, "name": "IRIDIUM 33 DEB", "group": "iridium-33-debris", "lat": -53.96697748053683, "lon": -56.806666817375856, "alt_km": 659.2139870431674, "timestamp": "2025-12-25T09:48:52.674850+00:00", "meta": {"OBJECT_NAME": "IRIDIUM 33 DEB", "OBJECT_ID": "1997-051MQ", "EPOCH": "2025-12-23T08:19:45.742080", "MEAN_MOTION": 14.76622779, "ECCENTRICITY": 0.00178135, "INCLINATION": 86.3116, "RA_OF_ASC_NODE": 309.2251, "ARG_OF_PERICENTER": 145.0656, "MEAN_ANOMALY": 7.2154, "EPHEMERIS_TYPE": 0, "CLASSIFICATION_TYPE": "U", "NORAD_CAT_ID": 34870, "ELEMENT_SET_NO": 999, "REV_AT_EPOCH": 89067, "BSTAR": 0.001482504, "MEAN_MOTION_DOT": 0.0001041, "MEAN_MOTION_DDOT": 0}, "tle": {"line1": "1 34870U 97051MQ  25357.34705720  .00010410  00000+0  14825-2 0  9991", "line2": "2 34870  86.3116 309.2251 0017813 145.0656   7.2154 14.76622779890678"}}, "geometry": {"type": "Point", "coordinates": [-56.806666817375856, -53.96697748053683]}}, {"type": "Feature", "properties": {"norad_id": 34896, "name": "IRIDIUM 33 DEB", "group": "iridium-33-debris", "lat": 41.533989037654614, "lon": -35.73816096870368, "alt_km": 680.4212586842141, "timestamp": "2025-12-25T09:48:52.674867+00:00", "meta": {"OBJECT_NAME": "IRIDIUM 33 DEB", "OBJECT_ID": "1997-051MY", "EPOCH": "2025-12-24T04:12:44.288640", "MEAN_MOTION": 14.66381715, "ECCENTRICITY": 0.00257287, "INCLINATION": 86.3299, "RA_OF_ASC_NODE": 321.5555, "ARG_OF_PERICENTER": 173.6101, "MEAN_ANOMALY": 201.3064, "EPHEMERIS_TYPE": 0, "CLASSIFICATION_TYPE": "U", "NORAD_CAT_ID": 34896, "ELEMENT_SET_NO": 999, "REV_AT_EPOCH": 87787, "BSTAR": 0.00093038371, "MEAN_MOTION_DOT": 5.188e-05, "MEAN_MOTION_DDOT": 0}, "tle": {"line1": "1 34896U 97051MY  25358.17551260  .00005188  00000+0  93038-3 0  9999", "line2": "2 34896  86.3299 321.5555 0025728 173.6101 201.3064 14.66381715877873"}}, "geometry": {"type": "Point", "coordinates": [-35.73816096870368, 41.533989037654614]}}, {"type": "Feature", "properties": {"norad_id": 34926, "name": "IRIDIUM 33 DEB", "group": "iridium-33-debris", "lat": -40.70076025149727, "lon": -0.9406197971920945, "alt_km": 698.0391988457131, "timestamp": "2025-12-25T09:48:52.674878+00:00", "meta": {"OBJECT_NAME": "IRIDIUM 33 DEB", "OBJECT_ID": "1997-051NF", "EPOCH": "2025-12-24T11:35:50.045568", "MEAN_MOTION": 14.54934016, "ECCENTRICITY": 0.00742773, "INCLINATION": 86.1319, "RA_OF_ASC_NODE": 2.8252, "ARG_OF_PERICENTER": 252.0201, "MEAN_ANOMALY": 260.7718, "EPHEMERIS_TYPE": 0, "CLASSIFICATION_TYPE": "U", "NORAD_CAT_ID": 34926, "ELEMENT_SET_NO": 999, "REV_AT_EPOCH": 86627, "BSTAR": 0.0058051773, "MEAN_MOTION_DOT": 0.00025989, "MEAN_MOTION_DDOT": 0}, "tle": {"line1": "1 34926U 97051NF  25358.48321812  .00025989  00000+0  58052-2 0  9992", "line2": "2 34926  86.1319   2.8252 0074277 252.0201 260.7718 14.54934016866279"}}, "geometry": {"type": "Point", "coordinates": [-0.9406197971920945, -40.70076025149727]}}, {"type": "Feature", "properties": {"norad_id": 34985, "name": "IRIDIUM 33 DEB", "group": "iridium-33-debris", "lat": -46.96540890100389, "lon": -124.6251856311019, "alt_km": 748.3303910782033, "timestamp": "2025-12-25T09:48:52.674888+00:00", "meta": {"OBJECT_NAME": "IRIDIUM 33 DEB", "OBJECT_ID": "1997-051NR", "EPOCH": "2025-12-24T21:41:40.078176", "MEAN_MOTION": 14.42058691, "ECCENTRICITY": 0.0022059, "INCLINATION": 86.3682, "RA_OF_ASC_NODE": 51.6896, "ARG_OF_PERICENTER": 179.2427, "MEAN_ANOMALY": 307.5347, "EPHEMERIS_TYPE": 0, "CLASSIFICATION_TYPE": "U", "NORAD_CAT_ID": 34985, "ELEMENT_SET_NO": 999, "REV_AT_EPOCH": 87350, "BSTAR": 0.00065683, "MEAN_MOTION_DOT": 2.182e-05, "MEAN_MOTION_DDOT": 0}, "tle": {"line1": "1 34985U 97051NR  25358.90393609  .00002182  00000+0  65683-3 0  9996", "line2": "2 34985  86.3682  51.6896 0022059 179.2427 307.5347 14.42058691873501"}}, "geometry": {"type": "Point", "coordinates": [-124.6251856311019, -46.96540890100389]}}, {"type": "Feature", "properties": {"norad_id": 35051, "name": "IRIDIUM 33 DEB", "group": "iridium-33-debris", "lat": 53.8894785385783, "lon": 8.396122338190814, "alt_km": 721.0082504794336, "timestamp": "2025-12-25T09:48:52.674898+00:00", "meta": {"OBJECT_NAME": "IRIDIUM 33 DEB", "OBJECT_ID": "1997-051NX", "EPOCH": "2025-12-22T18:31:37.744896", "MEAN_MOTION": 14.47639956, "ECCENTRICITY": 0.0010302, "INCLINATION": 86.324, "RA_OF_ASC_NODE": 4.4893, "ARG_OF_PERICENTER": 63.2582, "MEAN_ANOMALY": 296.9674, "EPHEMERIS_TYPE": 0, "CLASSIFICATION_TYPE": "U", "NORAD_CAT_ID": 35051, "ELEMENT_SET_NO": 999, "REV_AT_EPOCH": 87141, "BSTAR": 0.00060447572, "MEAN_MOTION_DOT": 2.248e-05, "MEAN_MOTION_DDOT": 0}, "tle": {"line1": "1 35051U 97051NX  25356.77196464  .00002248  00000+0  60448-3 0  9991", "line2": "2 35051  86.3240   4.4893 0010302  63.2582 296.9674 14.47639956871417"}}, "geometry": {"type": "Point", "coordinates": [8.396122338190814, 53.8894785385783]}}, {"type": "Feature", "properties": {"norad_id": 35052, "name": "IRIDIUM 33 DEB", "group": "iridium-33-debris", "lat": 32.00795464716599, "lon": -167.2554639061563, "alt_km": 763.0473311238165, "timestamp": "2025-12-25T09:48:52.674908+00:00", "meta": {"OBJECT_NAME": "IRIDIUM 33 DEB", "OBJECT_ID": "1997-051NY", "EPOCH": "2025-12-25T00:47:01.040352", "MEAN_MOTION": 14.38506119, "ECCENTRICITY": 0.0013078, "INCLINATION": 86.3301, "RA_OF_ASC_NODE": 15.205, "ARG_OF_PERICENTER": 50.4625, "MEAN_ANOMALY": 309.7726, "EPHEMERIS_TYPE": 0, "CLASSIFICATION_TYPE": "U", "NORAD_CAT_ID": 35052, "ELEMENT_SET_NO": 999, "REV_AT_EPOCH": 87452, "BSTAR": 0.00019004, "MEAN_MOTION_DOT": 6.01e-06, "MEAN_MOTION_DDOT": 0}, "tle": {"line1": "1 35052U 97051NY  25359.03265093  .00000601  00000+0  19004-3 0  9992", "line2": "2 35052  86.3301  15.2050 0013078  50.4625 309.7726 14.38506119874520"}}, "geometry": {"type": "Point", "coordinates": [-167.2554639061563, 32.00795464716599]}}, {"type": "Feature", "properties": {"norad_id": 35080, "name": "IRIDIUM 33 DEB", "group": "iridium-33-debris", "lat": 0.0884327477485967, "lon": 46.320693931707325, "alt_km": 637.9784876895656, "timestamp": "2025-12-25T09:48:52.674919+00:00", "meta": {"OBJECT_NAME": "IRIDIUM 33 DEB", "OBJECT_ID": "1997-051PF", "EPOCH": "2025-12-24T03:08:07.207008", "MEAN_MOTION": 14.87285767, "ECCENTRICITY": 0.00582666, "INCLINATION": 86.2065, "RA_OF_ASC_NODE": 46.9271, "ARG_OF_PERICENTER": 140.2548, "MEAN_ANOMALY": 220.2968, "EPHEMERIS_TYPE": 0, "CLASSIFICATION_TYPE": "U", "NORAD_CAT_ID": 35080, "ELEMENT_SET_NO": 999, "REV_AT_EPOCH": 69857, "BSTAR": 0.0059641205, "MEAN_MOTION_DOT": 0.00055854, "MEAN_MOTION_DDOT": 0}, "tle": {"line1": "1 35080U 97051PF  25358.13063897  .00055854  00000+0  59641-2 0  9991", "line2": "2 35080  86.2065  46.9271 0058266 140.2548 220.2968 14.87285767698574"}}, "geometry": {"type": "Point", "coordinates": [46.320693931707325, 0.0884327477485967]}}, {"type": "Feature", "properties": {"norad_id": 35297, "name": "IRIDIUM 33 DEB", "group": "iridium-33-debris", "lat": -1.300292244020463, "lon": 57.26869146470399, "alt_km": 747.47222718781, "timestamp": "2025-12-25T09:48:52.674928+00:00", "meta": {"OBJECT_NAME": "IRIDIUM 33 DEB", "OBJECT_ID": "1997-051PM", "EPOCH": "2025-12-22T21:59:54.464640", "MEAN_MOTION": 14.45198443, "ECCENTRICITY": 0.0018277, "INCLINATION": 86.3852, "RA_OF_ASC_NODE": 58.4147, "ARG_OF_PERICENTER": 110.0569, "MEAN_ANOMALY": 250.2602, "EPHEMERIS_TYPE": 0, "CLASSIFICATION_TYPE": "U", "NORAD_CAT_ID": 35297, "ELEMENT_SET_NO": 999, "REV_AT_EPOCH": 70573, "BSTAR": 0.00060275, "MEAN_MOTION_DOT": 2.134e-05, "MEAN_MOTION_DDOT": 0}, "tle": {"line1": "1 35297U 97051PM  25356.91660260  .00002134  00000+0  60275-3 0  9991", "line2": "2 35297  86.3852  58.4147 0018277 110.0569 250.2602 14.45198443705738"}}, "geometry": {"type": "Point", "coordinates": [57.26869146470399, -1.300292244020463]}}, {"type": "Feature", "properties": {"norad_id": 35299, "name": "IRIDIUM 33 DEB", "group": "iridium-33-debris", "lat": 82.24762008821781, "lon": 179.18431389330686, "alt_km": 713.6787625893639, "timestamp": "2025-12-25T09:48:52.674939+00:00", "meta": {"OBJECT_NAME": "IRIDIUM 33 DEB", "OBJECT_ID": "1997-051PP", "EPOCH": "2025-12-24T20:51:14.844384", "MEAN_MOTION": 14.409197, "ECCENTRICITY": 0.00585817, "INCLINATION": 86.2875, "RA_OF_ASC_NODE": 27.9049, "ARG_OF_PERICENTER": 63.754, "MEAN_ANOMALY": 113.1792, "EPHEMERIS_TYPE": 0, "CLASSIFICATION_TYPE": "U", "NORAD_CAT_ID": 35299, "ELEMENT_SET_NO": 999, "REV_AT_EPOCH": 86505, "BSTAR": 0.00080315258, "MEAN_MOTION_DOT": 2.649e-05, "MEAN_MOTION_DDOT": 0}, "tle": {"line1": "1 35299U 97051PP  25358.86892181  .00002649  00000+0  80315-3 0  9996", "line2": "2 35299  86.2875  27.9049 0058581  63.7540 113.1792 14.40919700865052"}}, "geometry": {"type": "Point", "coordinates": [179.18431389330686, 82.24762008821781]}}, {"type": "Feature", "properties": {"norad_id": 35480, "name": "IRIDIUM 33 DEB", "group": "iridium-33-debris", "lat": -61.552529105923796, "lon": -153.82573468879232, "alt_km": 744.7263792104359, "timestamp": "2025-12-25T09:48:52.674949+00:00", "meta": {"OBJECT_NAME": "IRIDIUM 33 DEB", "OBJECT_ID": "1997-051QA", "EPOCH": "2025-12-24T07:51:25.805664", "MEAN_MOTION": 14.49809175, "ECCENTRICITY": 0.00158453, "INCLINATION": 86.3558, "RA_OF_ASC_NODE": 19.8875, "ARG_OF_PERICENTER": 70.7073, "MEAN_ANOMALY": 289.5844, "EPHEMERIS_TYPE": 0, "CLASSIFICATION_TYPE": "U", "NORAD_CAT_ID": 35480, "ELEMENT_SET_NO": 999, "REV_AT_EPOCH": 87199, "BSTAR": 0.00057778093, "MEAN_MOTION_DOT": 2.251e-05, "MEAN_MOTION_DDOT": 0}, "tle": {"line1": "1 35480U 97051QA  25358.32738201  .00002251  00000+0  57778-3 0  9997", "line2": "2 35480  86.3558  19.8875 0015845  70.7073 289.5844 14.49809175871994"}}, "geometry": {"type": "Point", "coordinates": [-153.82573468879232, -61.552529105923796]}}]}